{"type":"FeatureCollection","features":[{"type":"Feature","properties":{"name":"Buckingham Palace","kind":"landmark"},"geometry":{"type":"Point","coordinates":[-0.14247,51.50165]}},{"type":"Feature","properties":{"name":"The Shard","kind":"landmark"},"geometry":{"type":"Point","coordinates":[-0.08611,51.50395]}},{"type":"Feature","properties":{"name":"London Eye","kind":"landmark"},"geometry":{"type":"Point","coordinates":[-0.11949,51.50394]}},{"type":"Feature","properties":{"name":"Tower of London","kind":"landmark"},"geometry":{"type":"Point","coordinates":[-0.07782,51.50772]}},{"type":"Feature","properties":{"name":"London","kind":"place"},"geometry":{"type":"Point","coordinates":[-0.12777,51.50745]}},{"type":"Feature","properties":{"name":"Whetstone","kind":"place"},"geometry":{"type":"Point","coordinates":[-0.17488,51.63019]}},{"type":"Feature","properties":{"name":"Totteridge","kind":"place"},"geometry":{"type":"Point","coordinates":[-0.20087,51.63313]}},{"type":"Feature","properties":{"name":"Friern Barnet","kind":"place"},"geometry":{"type":"Point","coordinates":[-0.15859,51.61288]}},{"type":"Feature","properties":{"name":"Muswell Hill","kind":"place"},"geometry":{"type":"Point","coordinates":[-0.14208,51.59104]}},{"type":"Feature","properties":{"name":"Hendon","kind":"place"},"geometry":{"type":"Point","coordinates":[-0.2216,51.58972]}},{"type":"Feature","properties":{"name":"Edgware","kind":"place"},"geometry":{"type":"Point","coordinates":[-0.27674,51.61764]}},{"type":"Feature","properties":{"name":"Catford","kind":"place"},"geometry":{"type":"Point","coordinates":[-0.01975,51.44532]}},{"type":"Feature","properties":{"name":"East Ham","kind":"place"},"geometry":{"type":"Point","coordinates":[0.05447,51.53308]}},{"type":"Feature","properties":{"name":"Leatherhead","kind":"place"},"geometry":{"type":"Point","coordinates":[-0.32931,51.2955]}},{"type":"Feature","properties":{"name":"Hampton Hill","kind":"place"},"geometry":{"type":"Point","coordinates":[-0.35508,51.42784]}},{"type":"Feature","properties":{"name":"Teddington","kind":"place"},"geometry":{"type":"Point","coordinates":[-0.33365,51.42778]}},{"type":"Feature","properties":{"name":"Hanworth","kind":"place"},"geometry":{"type":"Point","coordinates":[-0.39036,51.43485]}},{"type":"Feature","properties":{"name":"Bedfont","kind":"place"},"geometry":{"type":"Point","coordinates":[-0.43087,51.45312]}},{"type":"Feature","properties":{"name":"Putney","kind":"place"},"geometry":{"type":"Point","coordinates":[-0.2163,51.46253]}},{"type":"Feature","properties":{"name":"Enfield","kind":"place"},"geometry":{"type":"Point","coordinates":[-0.08102,51.65209]}},{"type":"Feature","properties":{"name":"Hammersmith","kind":"place"},"geometry":{"type":"Point","coordinates":[-0.22364,51.49204]}},{"type":"Feature","properties":{"name":"Barnes","kind":"place"},"geometry":{"type":"Point","coordinates":[-0.24928,51.47374]}},{"type":"Feature","properties":{"name":"Watford","kind":"place"},"geometry":{"type":"Point","coordinates":[-0.39574,51.65539]}},{"type":"Feature","properties":{"name":"Pimlico","kind":"place"},"geometry":{"type":"Point","coordinates":[-0.13988,51.489]}},{"type":"Feature","properties":{"name":"Richmond","kind":"place"},"geometry":{"type":"Point","coordinates":[-0.30328,51.46135]}},{"type":"Feature","properties":{"name":"Kew","kind":"place"},"geometry":{"type":"Point","coordinates":[-0.28557,51.47714]}},{"type":"Feature","properties":{"name":"Twickenham","kind":"place"},"geometry":{"type":"Point","coordinates":[-0.32819,51.44674]}},{"type":"Feature","properties":{"name":"Rickmansworth","kind":"place"},"geometry":{"type":"Point","coordinates":[-0.47184,51.639]}},{"type":"Feature","properties":{"name":"Croydon","kind":"place"},"geometry":{"type":"Point","coordinates":[-0.10031,51.3737]}},{"type":"Feature","properties":{"name":"Crystal Palace","kind":"place"},"geometry":{"type":"Point","coordinates":[-0.07113,51.41937]}},{"type":"Feature","properties":{"name":"Wandsworth","kind":"place"},"geometry":{"type":"Point","coordinates":[-0.19326,51.45703]}},{"type":"Feature","properties":{"name":"Loughton","kind":"place"},"geometry":{"type":"Point","coordinates":[0.05441,51.64671]}},{"type":"Feature","properties":{"name":"Chingford","kind":"place"},"geometry":{"type":"Point","coordinates":[0.004,51.63089]}},{"type":"Feature","properties":{"name":"Staines-upon-Thames","kind":"place"},"geometry":{"type":"Point","coordinates":[-0.51104,51.43401]}},{"type":"Feature","properties":{"name":"Brixton","kind":"place"},"geometry":{"type":"Point","coordinates":[-0.1148,51.46339]}},{"type":"Feature","properties":{"name":"Streatham","kind":"place"},"geometry":{"type":"Point","coordinates":[-0.13111,51.42977]}},{"type":"Feature","properties":{"name":"Shepherd's Bush","kind":"place"},"geometry":{"type":"Point","coordinates":[-0.22299,51.50532]}},{"type":"Feature","properties":{"name":"Sidcup","kind":"place"},"geometry":{"type":"Point","coordinates":[0.10104,51.4264]}},{"type":"Feature","properties":{"name":"Eltham","kind":"place"},"geometry":{"type":"Point","coordinates":[0.05413,51.45057]}},{"type":"Feature","properties":{"name":"New Eltham","kind":"place"},"geometry":{"type":"Point","coordinates":[0.06853,51.43623]}},{"type":"Feature","properties":{"name":"Mottingham","kind":"place"},"geometry":{"type":"Point","coordinates":[0.04329,51.437]}},{"type":"Feature","properties":{"name":"Bromley","kind":"place"},"geometry":{"type":"Point","coordinates":[0.01481,51.4028]}},{"type":"Feature","properties":{"name":"Barking","kind":"place"},"geometry":{"type":"Point","coordinates":[0.08042,51.53899]}},{"type":"Feature","properties":{"name":"Hither Green","kind":"place"},"geometry":{"type":"Point","coordinates":[-0.00543,51.4503]}},{"type":"Feature","properties":{"name":"Downham","kind":"place"},"geometry":{"type":"Point","coordinates":[0.00646,51.42611]}},{"type":"Feature","properties":{"name":"Catford South","kind":"place"},"geometry":{"type":"Point","coordinates":[-0.00598,51.44052]}},{"type":"Feature","properties":{"name":"Walworth","kind":"place"},"geometry":{"type":"Point","coordinates":[-0.09066,51.49011]}},{"type":"Feature","properties":{"name":"Elephant and Castle","kind":"place"},"geometry":{"type":"Point","coordinates":[-0.10033,51.49501]}},{"type":"Feature","properties":{"name":"Hackbridge","kind":"place"},"geometry":{"type":"Point","coordinates":[-0.15675,51.37961]}},{"type":"Feature","properties":{"name":"South Ockendon","kind":"place"},"geometry":{"type":"Point","coordinates":[0.28279,51.50938]}},{"type":"Feature","properties":{"name":"Grays","kind":"place"},"geometry":{"type":"Point","coordinates":[0.32331,51.47809]}},{"type":"Feature","properties":{"name":"South Stifford","kind":"place"},"geometry":{"type":"Point","coordinates":[0.30166,51.47777]}},{"type":"Feature","properties":{"name":"Mayfair","kind":"place"},"geometry":{"type":"Point","coordinates":[-0.14706,51.51109]}},{"type":"Feature","properties":{"name":"Shenfield","kind":"place"},"geometry":{"type":"Point","coordinates":[0.32553,51.62953]}},{"type":"Feature","properties":{"name":"Tottenham","kind":"place"},"geometry":{"type":"Point","coordinates":[-0.06729,51.5977]}},{"type":"Feature","properties":{"name":"Crouch End","kind":"place"},"geometry":{"type":"Point","coordinates":[-0.12368,51.57969]}},{"type":"Feature","properties":{"name":"West Green","kind":"place"},"geometry":{"type":"Point","coordinates":[-0.08985,51.58681]}},{"type":"Feature","properties":{"name":"Stamford Hill","kind":"place"},"geometry":{"type":"Point","coordinates":[-0.06904,51.57071]}},{"type":"Feature","properties":{"name":"Stoke Newington","kind":"place"},"geometry":{"type":"Point","coordinates":[-0.08225,51.55787]}},{"type":"Feature","properties":{"name":"Islington","kind":"place"},"geometry":{"type":"Point","coordinates":[-0.09991,51.53843]}},{"type":"Feature","properties":{"name":"Kentish Town","kind":"place"},"geometry":{"type":"Point","coordinates":[-0.1408,51.55014]}},{"type":"Feature","properties":{"name":"Gospel Oak","kind":"place"},"geometry":{"type":"Point","coordinates":[-0.15175,51.55369]}},{"type":"Feature","properties":{"name":"Bethnal Green","kind":"place"},"geometry":{"type":"Point","coordinates":[-0.05616,51.53035]}},{"type":"Feature","properties":{"name":"Dalston","kind":"place"},"geometry":{"type":"Point","coordinates":[-0.07601,51.54321]}},{"type":"Feature","properties":{"name":"Haggerston","kind":"place"},"geometry":{"type":"Point","coordinates":[-0.07401,51.53666]}},{"type":"Feature","properties":{"name":"Wapping","kind":"place"},"geometry":{"type":"Point","coordinates":[-0.06202,51.50713]}},{"type":"Feature","properties":{"name":"Shoreditch","kind":"place"},"geometry":{"type":"Point","coordinates":[-0.07989,51.52667]}},{"type":"Feature","properties":{"name":"City of London","kind":"place"},"geometry":{"type":"Point","coordinates":[-0.092,51.51562]}},{"type":"Feature","properties":{"name":"Clerkenwell","kind":"place"},"geometry":{"type":"Point","coordinates":[-0.10556,51.52373]}},{"type":"Feature","properties":{"name":"Bloomsbury","kind":"place"},"geometry":{"type":"Point","coordinates":[-0.12896,51.5211]}},{"type":"Feature","properties":{"name":"Bermondsey","kind":"place"},"geometry":{"type":"Point","coordinates":[-0.06327,51.49701]}},{"type":"Feature","properties":{"name":"Rotherhithe","kind":"place"},"geometry":{"type":"Point","coordinates":[-0.04363,51.50029]}},{"type":"Feature","properties":{"name":"Stepney","kind":"place"},"geometry":{"type":"Point","coordinates":[-0.04622,51.5174]}},{"type":"Feature","properties":{"name":"Limehouse","kind":"place"},"geometry":{"type":"Point","coordinates":[-0.03515,51.51331]}},{"type":"Feature","properties":{"name":"Blackwall","kind":"place"},"geometry":{"type":"Point","coordinates":[-0.0064,51.5065]}},{"type":"Feature","properties":{"name":"Isle of Dogs","kind":"place"},"geometry":{"type":"Point","coordinates":[-0.01689,51.49784]}},{"type":"Feature","properties":{"name":"Poplar","kind":"place"},"geometry":{"type":"Point","coordinates":[-0.01446,51.51107]}},{"type":"Feature","properties":{"name":"Bow","kind":"place"},"geometry":{"type":"Point","coordinates":[-0.02749,51.53094]}},{"type":"Feature","properties":{"name":"Stratford","kind":"place"},"geometry":{"type":"Point","coordinates":[0.00162,51.54069]}},{"type":"Feature","properties":{"name":"Leytonstone","kind":"place"},"geometry":{"type":"Point","coordinates":[0.01117,51.5684]}},{"type":"Feature","properties":{"name":"Walthamstow","kind":"place"},"geometry":{"type":"Point","coordinates":[-0.01882,51.58447]}},{"type":"Feature","properties":{"name":"Edmonton","kind":"place"},"geometry":{"type":"Point","coordinates":[-0.07725,51.62681]}},{"type":"Feature","properties":{"name":"Archway","kind":"place"},"geometry":{"type":"Point","coordinates":[-0.13459,51.56568]}},{"type":"Feature","properties":{"name":"Highbury","kind":"place"},"geometry":{"type":"Point","coordinates":[-0.10271,51.5458]}},{"type":"Feature","properties":{"name":"Barnsbury","kind":"place"},"geometry":{"type":"Point","coordinates":[-0.11473,51.53894]}},{"type":"Feature","properties":{"name":"Greenwich","kind":"place"},"geometry":{"type":"Point","coordinates":[-0.00454,51.48208]}},{"type":"Feature","properties":{"name":"Charlton","kind":"place"},"geometry":{"type":"Point","coordinates":[0.03654,51.48261]}},{"type":"Feature","properties":{"name":"Lewisham","kind":"place"},"geometry":{"type":"Point","coordinates":[-0.01018,51.46243]}},{"type":"Feature","properties":{"name":"City of Westminster","kind":"place"},"geometry":{"type":"Point","coordinates":[-0.13715,51.49732]}},{"type":"Feature","properties":{"name":"Willesden","kind":"place"},"geometry":{"type":"Point","coordinates":[-0.23587,51.54662]}},{"type":"Feature","properties":{"name":"Wembley","kind":"place"},"geometry":{"type":"Point","coordinates":[-0.29576,51.55315]}},{"type":"Feature","properties":{"name":"Hillingdon","kind":"place"},"geometry":{"type":"Point","coordinates":[-0.45326,51.53256]}},{"type":"Feature","properties":{"name":"Ruislip","kind":"place"},"geometry":{"type":"Point","coordinates":[-0.42785,51.57756]}},{"type":"Feature","properties":{"name":"Uxbridge","kind":"place"},"geometry":{"type":"Point","coordinates":[-0.48167,51.54495]}},{"type":"Feature","properties":{"name":"Northwood","kind":"place"},"geometry":{"type":"Point","coordinates":[-0.42058,51.60517]}},{"type":"Feature","properties":{"name":"Pinner","kind":"place"},"geometry":{"type":"Point","coordinates":[-0.37701,51.59687]}},{"type":"Feature","properties":{"name":"Wealdstone","kind":"place"},"geometry":{"type":"Point","coordinates":[-0.32948,51.59364]}},{"type":"Feature","properties":{"name":"Brentford","kind":"place"},"geometry":{"type":"Point","coordinates":[-0.32166,51.4864]}},{"type":"Feature","properties":{"name":"Romford","kind":"place"},"geometry":{"type":"Point","coordinates":[0.18226,51.57605]}},{"type":"Feature","properties":{"name":"South Kensington","kind":"place"},"geometry":{"type":"Point","coordinates":[-0.18314,51.49558]}},{"type":"Feature","properties":{"name":"Knightsbridge","kind":"place"},"geometry":{"type":"Point","coordinates":[-0.16696,51.50084]}},{"type":"Feature","properties":{"name":"Cheshunt","kind":"place"},"geometry":{"type":"Point","coordinates":[-0.03359,51.70205]}},{"type":"Feature","properties":{"name":"Potters Bar","kind":"place"},"geometry":{"type":"Point","coordinates":[-0.18489,51.69589]}},{"type":"Feature","properties":{"name":"Fitzrovia","kind":"place"},"geometry":{"type":"Point","coordinates":[-0.13836,51.52294]}},{"type":"Feature","properties":{"name":"Marylebone","kind":"place"},"geometry":{"type":"Point","coordinates":[-0.15196,51.51964]}},{"type":"Feature","properties":{"name":"Chelsea","kind":"place"},"geometry":{"type":"Point","coordinates":[-0.16538,51.48886]}},{"type":"Feature","properties":{"name":"Kensington","kind":"place"},"geometry":{"type":"Point","coordinates":[-0.19912,51.49899]}},{"type":"Feature","properties":{"name":"Paddington","kind":"place"},"geometry":{"type":"Point","coordinates":[-0.17449,51.51616]}},{"type":"Feature","properties":{"name":"Maida Vale","kind":"place"},"geometry":{"type":"Point","coordinates":[-0.19059,51.52759]}},{"type":"Feature","properties":{"name":"Homerton","kind":"place"},"geometry":{"type":"Point","coordinates":[-0.03996,51.55047]}},{"type":"Feature","properties":{"name":"Orpington","kind":"place"},"geometry":{"type":"Point","coordinates":[0.10537,51.37964]}},{"type":"Feature","properties":{"name":"Chislehurst","kind":"place"},"geometry":{"type":"Point","coordinates":[0.07695,51.41157]}},{"type":"Feature","properties":{"name":"Thamesmead","kind":"place"},"geometry":{"type":"Point","coordinates":[0.11485,51.49893]}},{"type":"Feature","properties":{"name":"St Mary Cray","kind":"place"},"geometry":{"type":"Point","coordinates":[0.11386,51.39548]}},{"type":"Feature","properties":{"name":"Bexley","kind":"place"},"geometry":{"type":"Point","coordinates":[0.15049,51.44168]}},{"type":"Feature","properties":{"name":"Erith","kind":"place"},"geometry":{"type":"Point","coordinates":[0.17923,51.48082]}},{"type":"Feature","properties":{"name":"Bexleyheath","kind":"place"},"geometry":{"type":"Point","coordinates":[0.14609,51.45646]}},{"type":"Feature","properties":{"name":"Dartford","kind":"place"},"geometry":{"type":"Point","coordinates":[0.21807,51.44431]}},{"type":"Feature","properties":{"name":"Biggin Hill","kind":"place"},"geometry":{"type":"Point","coordinates":[0.03272,51.31663]}},{"type":"Feature","properties":{"name":"Canning Town","kind":"place"},"geometry":{"type":"Point","coordinates":[0.0135,51.51817]}},{"type":"Feature","properties":{"name":"West Ham","kind":"place"},"geometry":{"type":"Point","coordinates":[0.00779,51.53434]}},{"type":"Feature","properties":{"name":"Becontree","kind":"place"},"geometry":{"type":"Point","coordinates":[0.12754,51.54927]}},{"type":"Feature","properties":{"name":"Rainham","kind":"place"},"geometry":{"type":"Point","coordinates":[0.19966,51.51673]}},{"type":"Feature","properties":{"name":"South Hornchurch","kind":"place"},"geometry":{"type":"Point","coordinates":[0.19127,51.53309]}},{"type":"Feature","properties":{"name":"Harringay","kind":"place"},"geometry":{"type":"Point","coordinates":[-0.09962,51.58238]}},{"type":"Feature","properties":{"name":"Chiswick","kind":"place"},"geometry":{"type":"Point","coordinates":[-0.26382,51.49231]}},{"type":"Feature","properties":{"name":"Isleworth","kind":"place"},"geometry":{"type":"Point","coordinates":[-0.32597,51.46852]}},{"type":"Feature","properties":{"name":"Hanwell","kind":"place"},"geometry":{"type":"Point","coordinates":[-0.33816,51.50898]}},{"type":"Feature","properties":{"name":"Greenford","kind":"place"},"geometry":{"type":"Point","coordinates":[-0.35276,51.52794]}},{"type":"Feature","properties":{"name":"Harrow","kind":"place"},"geometry":{"type":"Point","coordinates":[-0.33747,51.58109]}},{"type":"Feature","properties":{"name":"Plaistow","kind":"place"},"geometry":{"type":"Point","coordinates":[0.02491,51.52938]}},{"type":"Feature","properties":{"name":"Kennington","kind":"place"},"geometry":{"type":"Point","coordinates":[-0.10925,51.48845]}},{"type":"Feature","properties":{"name":"Vauxhall","kind":"place"},"geometry":{"type":"Point","coordinates":[-0.12293,51.48748]}},{"type":"Feature","properties":{"name":"The Borough","kind":"place"},"geometry":{"type":"Point","coordinates":[-0.09322,51.50126]}},{"type":"Feature","properties":{"name":"Lambeth","kind":"place"},"geometry":{"type":"Point","coordinates":[-0.11634,51.49521]}},{"type":"Feature","properties":{"name":"Stockwell","kind":"place"},"geometry":{"type":"Point","coordinates":[-0.12124,51.46827]}},{"type":"Feature","properties":{"name":"Camberwell","kind":"place"},"geometry":{"type":"Point","coordinates":[-0.09254,51.47457]}},{"type":"Feature","properties":{"name":"East Dulwich","kind":"place"},"geometry":{"type":"Point","coordinates":[-0.07503,51.45852]}},{"type":"Feature","properties":{"name":"Dulwich","kind":"place"},"geometry":{"type":"Point","coordinates":[-0.08432,51.44188]}},{"type":"Feature","properties":{"name":"Forest Hill","kind":"place"},"geometry":{"type":"Point","coordinates":[-0.05395,51.43911]}},{"type":"Feature","properties":{"name":"Deptford","kind":"place"},"geometry":{"type":"Point","coordinates":[-0.02152,51.47585]}},{"type":"Feature","properties":{"name":"New Cross Gate","kind":"place"},"geometry":{"type":"Point","coordinates":[-0.04528,51.4747]}},{"type":"Feature","properties":{"name":"Battersea","kind":"place"},"geometry":{"type":"Point","coordinates":[-0.17221,51.47079]}},{"type":"Feature","properties":{"name":"Clapham","kind":"place"},"geometry":{"type":"Point","coordinates":[-0.13863,51.46145]}},{"type":"Feature","properties":{"name":"Southgate","kind":"place"},"geometry":{"type":"Point","coordinates":[-0.12733,51.63244]}},{"type":"Feature","properties":{"name":"Hornsey","kind":"place"},"geometry":{"type":"Point","coordinates":[-0.12097,51.58736]}},{"type":"Feature","properties":{"name":"Finchley","kind":"place"},"geometry":{"type":"Point","coordinates":[-0.18056,51.59732]}},{"type":"Feature","properties":{"name":"Mill Hill","kind":"place"},"geometry":{"type":"Point","coordinates":[-0.23307,51.61544]}},{"type":"Feature","properties":{"name":"Woodford","kind":"place"},"geometry":{"type":"Point","coordinates":[0.03245,51.60417]}},{"type":"Feature","properties":{"name":"Buckhurst Hill","kind":"place"},"geometry":{"type":"Point","coordinates":[0.04153,51.62686]}},{"type":"Feature","properties":{"name":"Chigwell","kind":"place"},"geometry":{"type":"Point","coordinates":[0.08054,51.62283]}},{"type":"Feature","properties":{"name":"Barkingside","kind":"place"},"geometry":{"type":"Point","coordinates":[0.08487,51.58831]}},{"type":"Feature","properties":{"name":"Newbury Park","kind":"place"},"geometry":{"type":"Point","coordinates":[0.09226,51.57585]}},{"type":"Feature","properties":{"name":"Wanstead","kind":"place"},"geometry":{"type":"Point","coordinates":[0.0278,51.57567]}},{"type":"Feature","properties":{"name":"Welling","kind":"place"},"geometry":{"type":"Point","coordinates":[0.11229,51.46222]}},{"type":"Feature","properties":{"name":"Plumstead","kind":"place"},"geometry":{"type":"Point","coordinates":[0.09243,51.48046]}},{"type":"Feature","properties":{"name":"Penge","kind":"place"},"geometry":{"type":"Point","coordinates":[-0.05167,51.41377]}},{"type":"Feature","properties":{"name":"West Thurrock","kind":"place"},"geometry":{"type":"Point","coordinates":[0.27213,51.47712]}},{"type":"Feature","properties":{"name":"Northfleet","kind":"place"},"geometry":{"type":"Point","coordinates":[0.33633,51.44323]}},{"type":"Feature","properties":{"name":"Swanley","kind":"place"},"geometry":{"type":"Point","coordinates":[0.17143,51.3963]}},{"type":"Feature","properties":{"name":"Herne Hill","kind":"place"},"geometry":{"type":"Point","coordinates":[-0.1001,51.45544]}},{"type":"Feature","properties":{"name":"Tulse Hill","kind":"place"},"geometry":{"type":"Point","coordinates":[-0.10206,51.44121]}},{"type":"Feature","properties":{"name":"Ham","kind":"place"},"geometry":{"type":"Point","coordinates":[-0.3093,51.43476]}},{"type":"Feature","properties":{"name":"Sudbury Hill","kind":"place"},"geometry":{"type":"Point","coordinates":[-0.33202,51.56094]}},{"type":"Feature","properties":{"name":"Carshalton","kind":"place"},"geometry":{"type":"Point","coordinates":[-0.16109,51.36579]}},{"type":"Feature","properties":{"name":"Heston","kind":"place"},"geometry":{"type":"Point","coordinates":[-0.37196,51.48546]}},{"type":"Feature","properties":{"name":"Osterley","kind":"place"},"geometry":{"type":"Point","coordinates":[-0.3518,51.48322]}},{"type":"Feature","properties":{"name":"Hounslow","kind":"place"},"geometry":{"type":"Point","coordinates":[-0.36135,51.46861]}},{"type":"Feature","properties":{"name":"Harmondsworth","kind":"place"},"geometry":{"type":"Point","coordinates":[-0.47554,51.48893]}},{"type":"Feature","properties":{"name":"West Drayton","kind":"place"},"geometry":{"type":"Point","coordinates":[-0.46627,51.50351]}},{"type":"Feature","properties":{"name":"Streatham Hill","kind":"place"},"geometry":{"type":"Point","coordinates":[-0.12225,51.44064]}},{"type":"Feature","properties":{"name":"North Woolwich","kind":"place"},"geometry":{"type":"Point","coordinates":[0.06415,51.50041]}},{"type":"Feature","properties":{"name":"Beddington","kind":"place"},"geometry":{"type":"Point","coordinates":[-0.13239,51.37199]}},{"type":"Feature","properties":{"name":"Wallington","kind":"place"},"geometry":{"type":"Point","coordinates":[-0.14956,51.35795]}},{"type":"Feature","properties":{"name":"Harold Wood","kind":"place"},"geometry":{"type":"Point","coordinates":[0.23105,51.59363]}},{"type":"Feature","properties":{"name":"Harold Hill","kind":"place"},"geometry":{"type":"Point","coordinates":[0.22015,51.6049]}},{"type":"Feature","properties":{"name":"Ardleigh Green","kind":"place"},"geometry":{"type":"Point","coordinates":[0.22099,51.58419]}},{"type":"Feature","properties":{"name":"Emerson Park","kind":"place"},"geometry":{"type":"Point","coordinates":[0.22905,51.57069]}},{"type":"Feature","properties":{"name":"Hutton Mount","kind":"place"},"geometry":{"type":"Point","coordinates":[0.33961,51.62457]}},{"type":"Feature","properties":{"name":"Collier Row","kind":"place"},"geometry":{"type":"Point","coordinates":[0.16152,51.59991]}},{"type":"Feature","properties":{"name":"Gidea Park","kind":"place"},"geometry":{"type":"Point","coordinates":[0.20595,51.58118]}},{"type":"Feature","properties":{"name":"Whitton","kind":"place"},"geometry":{"type":"Point","coordinates":[-0.35798,51.45117]}},{"type":"Feature","properties":{"name":"Cranford","kind":"place"},"geometry":{"type":"Point","coordinates":[-0.41066,51.4796]}},{"type":"Feature","properties":{"name":"Selsdon","kind":"place"},"geometry":{"type":"Point","coordinates":[-0.06077,51.34431]}},{"type":"Feature","properties":{"name":"Sydenham","kind":"place"},"geometry":{"type":"Point","coordinates":[-0.05239,51.42677]}},{"type":"Feature","properties":{"name":"Kenley","kind":"place"},"geometry":{"type":"Point","coordinates":[-0.10379,51.32275]}},{"type":"Feature","properties":{"name":"Purley","kind":"place"},"geometry":{"type":"Point","coordinates":[-0.11586,51.33881]}},{"type":"Feature","properties":{"name":"Warlingham","kind":"place"},"geometry":{"type":"Point","coordinates":[-0.05572,51.30956]}},{"type":"Feature","properties":{"name":"Whyteleafe","kind":"place"},"geometry":{"type":"Point","coordinates":[-0.07954,51.31015]}},{"type":"Feature","properties":{"name":"Caterham","kind":"place"},"geometry":{"type":"Point","coordinates":[-0.07725,51.2822]}},{"type":"Feature","properties":{"name":"South Norwood","kind":"place"},"geometry":{"type":"Point","coordinates":[-0.07682,51.3981]}},{"type":"Feature","properties":{"name":"West Wickham","kind":"place"},"geometry":{"type":"Point","coordinates":[-0.01468,51.3758]}},{"type":"Feature","properties":{"name":"Beckenham","kind":"place"},"geometry":{"type":"Point","coordinates":[-0.03032,51.40709]}},{"type":"Feature","properties":{"name":"Coulsdon","kind":"place"},"geometry":{"type":"Point","coordinates":[-0.13935,51.31997]}},{"type":"Feature","properties":{"name":"Elmers End","kind":"place"},"geometry":{"type":"Point","coordinates":[-0.0416,51.39947]}},{"type":"Feature","properties":{"name":"Shirley","kind":"place"},"geometry":{"type":"Point","coordinates":[-0.04663,51.37492]}},{"type":"Feature","properties":{"name":"Ashford","kind":"place"},"geometry":{"type":"Point","coordinates":[-0.46198,51.43302]}},{"type":"Feature","properties":{"name":"Cranham","kind":"place"},"geometry":{"type":"Point","coordinates":[0.26906,51.56852]}},{"type":"Feature","properties":{"name":"Peckham","kind":"place"},"geometry":{"type":"Point","coordinates":[-0.06993,51.47341]}},{"type":"Feature","properties":{"name":"Rayners Lane","kind":"place"},"geometry":{"type":"Point","coordinates":[-0.3703,51.57671]}},{"type":"Feature","properties":{"name":"Waltham Abbey","kind":"place"},"geometry":{"type":"Point","coordinates":[-0.00094,51.68921]}},{"type":"Feature","properties":{"name":"Tolworth","kind":"place"},"geometry":{"type":"Point","coordinates":[-0.28286,51.37888]}},{"type":"Feature","properties":{"name":"Hoxton","kind":"place"},"geometry":{"type":"Point","coordinates":[-0.08608,51.53239]}},{"type":"Feature","properties":{"name":"Roundshaw","kind":"place"},"geometry":{"type":"Point","coordinates":[-0.13057,51.35356]}},{"type":"Feature","properties":{"name":"Mitcham","kind":"place"},"geometry":{"type":"Point","coordinates":[-0.16408,51.4058]}},{"type":"Feature","properties":{"name":"Worton","kind":"place"},"geometry":{"type":"Point","coordinates":[-0.34636,51.46471]}},{"type":"Feature","properties":{"name":"Ponders End","kind":"place"},"geometry":{"type":"Point","coordinates":[-0.04038,51.64435]}},{"type":"Feature","properties":{"name":"Cockfosters","kind":"place"},"geometry":{"type":"Point","coordinates":[-0.14741,51.6479]}},{"type":"Feature","properties":{"name":"Palmers Green","kind":"place"},"geometry":{"type":"Point","coordinates":[-0.10919,51.61783]}},{"type":"Feature","properties":{"name":"Joydens Wood","kind":"place"},"geometry":{"type":"Point","coordinates":[0.17042,51.42697]}},{"type":"Feature","properties":{"name":"Worcester Park","kind":"place"},"geometry":{"type":"Point","coordinates":[-0.24166,51.3785]}},{"type":"Feature","properties":{"name":"Stoneleigh","kind":"place"},"geometry":{"type":"Point","coordinates":[-0.24626,51.36274]}},{"type":"Feature","properties":{"name":"Hadley Wood","kind":"place"},"geometry":{"type":"Point","coordinates":[-0.17352,51.66716]}},{"type":"Feature","properties":{"name":"Somers Town","kind":"place"},"geometry":{"type":"Point","coordinates":[-0.13157,51.53173]}},{"type":"Feature","properties":{"name":"Hampton","kind":"place"},"geometry":{"type":"Point","coordinates":[-0.36914,51.41503]}},{"type":"Feature","properties":{"name":"Ashtead","kind":"place"},"geometry":{"type":"Point","coordinates":[-0.30717,51.30552]}},{"type":"Feature","properties":{"name":"Spring Grove","kind":"place"},"geometry":{"type":"Point","coordinates":[-0.34401,51.47983]}},{"type":"Feature","properties":{"name":"Borehamwood","kind":"place"},"geometry":{"type":"Point","coordinates":[-0.27641,51.65553]}},{"type":"Feature","properties":{"name":"Garston","kind":"place"},"geometry":{"type":"Point","coordinates":[-0.3957,51.68579]}},{"type":"Feature","properties":{"name":"Watford Heath","kind":"place"},"geometry":{"type":"Point","coordinates":[-0.38517,51.64005]}},{"type":"Feature","properties":{"name":"Ebbsfleet","kind":"place"},"geometry":{"type":"Point","coordinates":[0.31948,51.44163]}},{"type":"Feature","properties":{"name":"Little Ilford","kind":"place"},"geometry":{"type":"Point","coordinates":[0.06252,51.5503]}},{"type":"Feature","properties":{"name":"Harrow Weald","kind":"place"},"geometry":{"type":"Point","coordinates":[-0.34049,51.60479]}},{"type":"Feature","properties":{"name":"Belmont","kind":"place"},"geometry":{"type":"Point","coordinates":[-0.3181,51.60123]}},{"type":"Feature","properties":{"name":"Stanmore","kind":"place"},"geometry":{"type":"Point","coordinates":[-0.30951,51.61742]}},{"type":"Feature","properties":{"name":"Kenton","kind":"place"},"geometry":{"type":"Point","coordinates":[-0.31343,51.58466]}},{"type":"Feature","properties":{"name":"Kingsbury","kind":"place"},"geometry":{"type":"Point","coordinates":[-0.26454,51.58418]}},{"type":"Feature","properties":{"name":"Hatch End","kind":"place"},"geometry":{"type":"Point","coordinates":[-0.37357,51.60842]}},{"type":"Feature","properties":{"name":"Roehampton","kind":"place"},"geometry":{"type":"Point","coordinates":[-0.24127,51.44988]}},{"type":"Feature","properties":{"name":"East Sheen","kind":"place"},"geometry":{"type":"Point","coordinates":[-0.26709,51.46237]}},{"type":"Feature","properties":{"name":"Mortlake","kind":"place"},"geometry":{"type":"Point","coordinates":[-0.26852,51.46989]}},{"type":"Feature","properties":{"name":"Southfields","kind":"place"},"geometry":{"type":"Point","coordinates":[-0.20647,51.44476]}},{"type":"Feature","properties":{"name":"Camden Town","kind":"place"},"geometry":{"type":"Point","coordinates":[-0.14276,51.53925]}},{"type":"Feature","properties":{"name":"Nunhead","kind":"place"},"geometry":{"type":"Point","coordinates":[-0.05351,51.46153]}},{"type":"Feature","properties":{"name":"Chipstead","kind":"place"},"geometry":{"type":"Point","coordinates":[0.15077,51.28384]}},{"type":"Feature","properties":{"name":"St John's","kind":"place"},"geometry":{"type":"Point","coordinates":[0.19605,51.28345]}},{"type":"Feature","properties":{"name":"Greatness","kind":"place"},"geometry":{"type":"Point","coordinates":[0.19922,51.29002]}},{"type":"Feature","properties":{"name":"Wildernesse","kind":"place"},"geometry":{"type":"Point","coordinates":[0.21738,51.28425]}},{"type":"Feature","properties":{"name":"Widmore","kind":"place"},"geometry":{"type":"Point","coordinates":[0.03378,51.40253]}},{"type":"Feature","properties":{"name":"Wimbledon","kind":"place"},"geometry":{"type":"Point","coordinates":[-0.2064,51.42148]}},{"type":"Feature","properties":{"name":"Petersham","kind":"place"},"geometry":{"type":"Point","coordinates":[-0.30529,51.44369]}},{"type":"Feature","properties":{"name":"Blackheath","kind":"place"},"geometry":{"type":"Point","coordinates":[0.00868,51.46626]}},{"type":"Feature","properties":{"name":"Thornton Heath","kind":"place"},"geometry":{"type":"Point","coordinates":[-0.09861,51.39911]}},{"type":"Feature","properties":{"name":"Cricklewood","kind":"place"},"geometry":{"type":"Point","coordinates":[-0.21575,51.5567]}},{"type":"Feature","properties":{"name":"North Finchley","kind":"place"},"geometry":{"type":"Point","coordinates":[-0.17569,51.61249]}},{"type":"Feature","properties":{"name":"Brockley","kind":"place"},"geometry":{"type":"Point","coordinates":[-0.03609,51.45783]}},{"type":"Feature","properties":{"name":"Honor Oak","kind":"place"},"geometry":{"type":"Point","coordinates":[-0.03991,51.44991]}},{"type":"Feature","properties":{"name":"Ladywell","kind":"place"},"geometry":{"type":"Point","coordinates":[-0.02032,51.45659]}},{"type":"Feature","properties":{"name":"Snaresbrook","kind":"place"},"geometry":{"type":"Point","coordinates":[0.02288,51.58317]}},{"type":"Feature","properties":{"name":"Becontree Heath","kind":"place"},"geometry":{"type":"Point","coordinates":[0.14788,51.56103]}},{"type":"Feature","properties":{"name":"Dagenham","kind":"place"},"geometry":{"type":"Point","coordinates":[0.14811,51.54133]}},{"type":"Feature","properties":{"name":"Scrattons Farm","kind":"place"},"geometry":{"type":"Point","coordinates":[0.13244,51.53041]}},{"type":"Feature","properties":{"name":"Thames View","kind":"place"},"geometry":{"type":"Point","coordinates":[0.10436,51.5286]}},{"type":"Feature","properties":{"name":"Hornchurch","kind":"place"},"geometry":{"type":"Point","coordinates":[0.22074,51.56177]}},{"type":"Feature","properties":{"name":"Chadwell Heath","kind":"place"},"geometry":{"type":"Point","coordinates":[0.12978,51.57005]}},{"type":"Feature","properties":{"name":"Marks Gate","kind":"place"},"geometry":{"type":"Point","coordinates":[0.13485,51.58637]}},{"type":"Feature","properties":{"name":"Little Heath","kind":"place"},"geometry":{"type":"Point","coordinates":[0.11714,51.58084]}},{"type":"Feature","properties":{"name":"Seven Kings","kind":"place"},"geometry":{"type":"Point","coordinates":[0.09861,51.56463]}},{"type":"Feature","properties":{"name":"Ilford","kind":"place"},"geometry":{"type":"Point","coordinates":[0.07117,51.55827]}},{"type":"Feature","properties":{"name":"Temple Fortune","kind":"place"},"geometry":{"type":"Point","coordinates":[-0.19905,51.58191]}},{"type":"Feature","properties":{"name":"Balham","kind":"place"},"geometry":{"type":"Point","coordinates":[-0.15129,51.44475]}},{"type":"Feature","properties":{"name":"Kingston upon Thames","kind":"place"},"geometry":{"type":"Point","coordinates":[-0.30626,51.40963]}},{"type":"Feature","properties":{"name":"Corbets Tey","kind":"place"},"geometry":{"type":"Point","coordinates":[0.25136,51.54294]}},{"type":"Feature","properties":{"name":"Woolwich","kind":"place"},"geometry":{"type":"Point","coordinates":[0.06233,51.48267]}},{"type":"Feature","properties":{"name":"Carpenders Park","kind":"place"},"geometry":{"type":"Point","coordinates":[-0.38002,51.62947]}},{"type":"Feature","properties":{"name":"High Barnet","kind":"place"},"geometry":{"type":"Point","coordinates":[-0.20054,51.65315]}},{"type":"Feature","properties":{"name":"Motspur Park","kind":"place"},"geometry":{"type":"Point","coordinates":[-0.2489,51.39099]}},{"type":"Feature","properties":{"name":"Mill End","kind":"place"},"geometry":{"type":"Point","coordinates":[-0.49277,51.63711]}},{"type":"Feature","properties":{"name":"The Cedars Estate","kind":"place"},"geometry":{"type":"Point","coordinates":[-0.48168,51.64009]}},{"type":"Feature","properties":{"name":"Moneyhill","kind":"place"},"geometry":{"type":"Point","coordinates":[-0.48394,51.63724]}},{"type":"Feature","properties":{"name":"East Barnet","kind":"place"},"geometry":{"type":"Point","coordinates":[-0.16282,51.64168]}},{"type":"Feature","properties":{"name":"New Barnet","kind":"place"},"geometry":{"type":"Point","coordinates":[-0.17101,51.64957]}},{"type":"Feature","properties":{"name":"Brunswick Park","kind":"place"},"geometry":{"type":"Point","coordinates":[-0.14819,51.62622]}},{"type":"Feature","properties":{"name":"New Southgate","kind":"place"},"geometry":{"type":"Point","coordinates":[-0.13789,51.61717]}},{"type":"Feature","properties":{"name":"Norbury","kind":"place"},"geometry":{"type":"Point","coordinates":[-0.12249,51.41107]}},{"type":"Feature","properties":{"name":"North Kensington","kind":"place"},"geometry":{"type":"Point","coordinates":[-0.2107,51.51966]}},{"type":"Feature","properties":{"name":"Beckton","kind":"place"},"geometry":{"type":"Point","coordinates":[0.05943,51.51608]}},{"type":"Feature","properties":{"name":"Cyprus","kind":"place"},"geometry":{"type":"Point","coordinates":[0.06709,51.5092]}},{"type":"Feature","properties":{"name":"Upton Park","kind":"place"},"geometry":{"type":"Point","coordinates":[0.03467,51.53692]}},{"type":"Feature","properties":{"name":"Forest Gate","kind":"place"},"geometry":{"type":"Point","coordinates":[0.02492,51.54952]}},{"type":"Feature","properties":{"name":"Manor Park","kind":"place"},"geometry":{"type":"Point","coordinates":[0.04764,51.55069]}},{"type":"Feature","properties":{"name":"Long Ditton","kind":"place"},"geometry":{"type":"Point","coordinates":[-0.31998,51.38416]}},{"type":"Feature","properties":{"name":"Hinchley Wood","kind":"place"},"geometry":{"type":"Point","coordinates":[-0.33891,51.37457]}},{"type":"Feature","properties":{"name":"Stroud Green","kind":"place"},"geometry":{"type":"Point","coordinates":[-0.1115,51.57169]}},{"type":"Feature","properties":{"name":"Kilburn","kind":"place"},"geometry":{"type":"Point","coordinates":[-0.19794,51.54188]}},{"type":"Feature","properties":{"name":"Ewell","kind":"place"},"geometry":{"type":"Point","coordinates":[-0.25118,51.35024]}},{"type":"Feature","properties":{"name":"Epsom","kind":"place"},"geometry":{"type":"Point","coordinates":[-0.26782,51.33261]}},{"type":"Feature","properties":{"name":"Cobham","kind":"place"},"geometry":{"type":"Point","coordinates":[-0.41208,51.33001]}},{"type":"Feature","properties":{"name":"Weybridge","kind":"place"},"geometry":{"type":"Point","coordinates":[-0.45493,51.37272]}},{"type":"Feature","properties":{"name":"Brentwood","kind":"place"},"geometry":{"type":"Point","coordinates":[0.30187,51.62017]}},{"type":"Feature","properties":{"name":"Epping","kind":"place"},"geometry":{"type":"Point","coordinates":[0.11029,51.69827]}},{"type":"Feature","properties":{"name":"Fulham","kind":"place"},"geometry":{"type":"Point","coordinates":[-0.20681,51.47441]}},{"type":"Feature","properties":{"name":"Hampstead","kind":"place"},"geometry":{"type":"Point","coordinates":[-0.1783,51.55653]}},{"type":"Feature","properties":{"name":"Addlestone","kind":"place"},"geometry":{"type":"Point","coordinates":[-0.48958,51.37112]}},{"type":"Feature","properties":{"name":"Chertsey","kind":"place"},"geometry":{"type":"Point","coordinates":[-0.50383,51.3923]}},{"type":"Feature","properties":{"name":"Sunbury-on-Thames","kind":"place"},"geometry":{"type":"Point","coordinates":[-0.41186,51.40771]}},{"type":"Feature","properties":{"name":"Morden","kind":"place"},"geometry":{"type":"Point","coordinates":[-0.1939,51.40069]}},{"type":"Feature","properties":{"name":"Raynes Park","kind":"place"},"geometry":{"type":"Point","coordinates":[-0.23129,51.41062]}},{"type":"Feature","properties":{"name":"Merton","kind":"place"},"geometry":{"type":"Point","coordinates":[-0.18806,51.41439]}},{"type":"Feature","properties":{"name":"Merton Park","kind":"place"},"geometry":{"type":"Point","coordinates":[-0.20197,51.40799]}},{"type":"Feature","properties":{"name":"Lower Morden","kind":"place"},"geometry":{"type":"Point","coordinates":[-0.21636,51.38977]}},{"type":"Feature","properties":{"name":"New Malden","kind":"place"},"geometry":{"type":"Point","coordinates":[-0.26341,51.40533]}},{"type":"Feature","properties":{"name":"Walton-on-Thames","kind":"place"},"geometry":{"type":"Point","coordinates":[-0.41981,51.38568]}},{"type":"Feature","properties":{"name":"Finsbury","kind":"place"},"geometry":{"type":"Point","coordinates":[-0.09142,51.5218]}},{"type":"Feature","properties":{"name":"Banstead","kind":"place"},"geometry":{"type":"Point","coordinates":[-0.19868,51.3239]}},{"type":"Feature","properties":{"name":"Chessington","kind":"place"},"geometry":{"type":"Point","coordinates":[-0.29862,51.35834]}},{"type":"Feature","properties":{"name":"Hook","kind":"place"},"geometry":{"type":"Point","coordinates":[-0.30715,51.3679]}},{"type":"Feature","properties":{"name":"Surbiton","kind":"place"},"geometry":{"type":"Point","coordinates":[-0.30331,51.39376]}},{"type":"Feature","properties":{"name":"Brent Cross","kind":"place"},"geometry":{"type":"Point","coordinates":[-0.21838,51.57676]}},{"type":"Feature","properties":{"name":"West Hendon","kind":"place"},"geometry":{"type":"Point","coordinates":[-0.24038,51.57821]}},{"type":"Feature","properties":{"name":"Colindale","kind":"place"},"geometry":{"type":"Point","coordinates":[-0.24956,51.59166]}},{"type":"Feature","properties":{"name":"Colney Hatch","kind":"place"},"geometry":{"type":"Point","coordinates":[-0.14801,51.60252]}},{"type":"Feature","properties":{"name":"Woodside Park","kind":"place"},"geometry":{"type":"Point","coordinates":[-0.18707,51.62076]}},{"type":"Feature","properties":{"name":"West Finchley","kind":"place"},"geometry":{"type":"Point","coordinates":[-0.19464,51.60885]}},{"type":"Feature","properties":{"name":"Chalk Farm","kind":"place"},"geometry":{"type":"Point","coordinates":[-0.15185,51.54231]}},{"type":"Feature","properties":{"name":"Belsize Park","kind":"place"},"geometry":{"type":"Point","coordinates":[-0.1683,51.54739]}},{"type":"Feature","properties":{"name":"Big Ben","kind":"landmark"},"geometry":{"type":"Point","coordinates":[-0.12457,51.5007]}},{"type":"Feature","properties":{"name":"Sutton","kind":"place"},"geometry":{"type":"Point","coordinates":[-0.19215,51.36122]}},{"type":"Feature","properties":{"name":"West Hampstead","kind":"place"},"geometry":{"type":"Point","coordinates":[-0.19173,51.55099]}},{"type":"Feature","properties":{"name":"South Hampstead","kind":"place"},"geometry":{"type":"Point","coordinates":[-0.1852,51.5435]}},{"type":"Feature","properties":{"name":"Tufnell Park","kind":"place"},"geometry":{"type":"Point","coordinates":[-0.13006,51.55792]}},{"type":"Feature","properties":{"name":"Highgate","kind":"place"},"geometry":{"type":"Point","coordinates":[-0.14924,51.57064]}},{"type":"Feature","properties":{"name":"Hampstead Garden Suburb","kind":"place"},"geometry":{"type":"Point","coordinates":[-0.18062,51.58051]}},{"type":"Feature","properties":{"name":"Holborn","kind":"place"},"geometry":{"type":"Point","coordinates":[-0.11373,51.5196]}},{"type":"Feature","properties":{"name":"Iver","kind":"place"},"geometry":{"type":"Point","coordinates":[-0.50637,51.51929]}},{"type":"Feature","properties":{"name":"Sanderstead","kind":"place"},"geometry":{"type":"Point","coordinates":[-0.07674,51.33408]}},{"type":"Feature","properties":{"name":"Holywell Estate","kind":"place"},"geometry":{"type":"Point","coordinates":[-0.42426,51.64679]}},{"type":"Feature","properties":{"name":"North Watford","kind":"place"},"geometry":{"type":"Point","coordinates":[-0.40121,51.67395]}},{"type":"Feature","properties":{"name":"Tower Bridge","kind":"landmark"},"geometry":{"type":"Point","coordinates":[-0.07537,51.50552]}},{"type":"Feature","properties":{"name":"Hendon Central","kind":"place"},"geometry":{"type":"Point","coordinates":[-0.22702,51.58282]}},{"type":"Feature","properties":{"name":"Hackney","kind":"place"},"geometry":{"type":"Point","coordinates":[-0.04936,51.54324]}},{"type":"Feature","properties":{"name":"Coombe","kind":"place"},"geometry":{"type":"Point","coordinates":[-0.2654,51.41945]}},{"type":"Feature","properties":{"name":"Forestdale","kind":"place"},"geometry":{"type":"Point","coordinates":[-0.03876,51.35133]}},{"type":"Feature","properties":{"name":"Waddon","kind":"place"},"geometry":{"type":"Point","coordinates":[-0.1182,51.36498]}},{"type":"Feature","properties":{"name":"Addiscombe","kind":"place"},"geometry":{"type":"Point","coordinates":[-0.07428,51.37969]}},{"type":"Feature","properties":{"name":"Broad Green","kind":"place"},"geometry":{"type":"Point","coordinates":[-0.10833,51.38339]}},{"type":"Feature","properties":{"name":"West Norwood","kind":"place"},"geometry":{"type":"Point","coordinates":[-0.10369,51.43462]}},{"type":"Feature","properties":{"name":"Molesey","kind":"place"},"geometry":{"type":"Point","coordinates":[-0.37131,51.4029]}},{"type":"Feature","properties":{"name":"Esher","kind":"place"},"geometry":{"type":"Point","coordinates":[-0.36541,51.36939]}},{"type":"Feature","properties":{"name":"Clapham Junction","kind":"place"},"geometry":{"type":"Point","coordinates":[-0.16787,51.46362]}},{"type":"Feature","properties":{"name":"Putney Vale","kind":"place"},"geometry":{"type":"Point","coordinates":[-0.24597,51.43802]}},{"type":"Feature","properties":{"name":"Furzedown","kind":"place"},"geometry":{"type":"Point","coordinates":[-0.1537,51.42439]}},{"type":"Feature","properties":{"name":"Norbiton","kind":"place"},"geometry":{"type":"Point","coordinates":[-0.2874,51.41]}},{"type":"Feature","properties":{"name":"Kingston Vale","kind":"place"},"geometry":{"type":"Point","coordinates":[-0.25814,51.43185]}},{"type":"Feature","properties":{"name":"Old Malden","kind":"place"},"geometry":{"type":"Point","coordinates":[-0.25909,51.38248]}},{"type":"Feature","properties":{"name":"Hersham","kind":"place"},"geometry":{"type":"Point","coordinates":[-0.39968,51.3656]}},{"type":"Feature","properties":{"name":"Berrylands","kind":"place"},"geometry":{"type":"Point","coordinates":[-0.2848,51.39378]}},{"type":"Feature","properties":{"name":"St Margarets","kind":"place"},"geometry":{"type":"Point","coordinates":[-0.32241,51.45671]}},{"type":"Feature","properties":{"name":"Strawberry Hill","kind":"place"},"geometry":{"type":"Point","coordinates":[-0.33994,51.43859]}},{"type":"Feature","properties":{"name":"Notting Hill","kind":"place"},"geometry":{"type":"Point","coordinates":[-0.20553,51.511]}},{"type":"Feature","properties":{"name":"Bayswater","kind":"place"},"geometry":{"type":"Point","coordinates":[-0.18763,51.51241]}},{"type":"Feature","properties":{"name":"Belgravia","kind":"place"},"geometry":{"type":"Point","coordinates":[-0.1535,51.49821]}},{"type":"Feature","properties":{"name":"Victoria","kind":"place"},"geometry":{"type":"Point","coordinates":[-0.14132,51.49598]}},{"type":"Feature","properties":{"name":"Millbank","kind":"place"},"geometry":{"type":"Point","coordinates":[-0.12904,51.49261]}},{"type":"Feature","properties":{"name":"Covent Garden","kind":"place"},"geometry":{"type":"Point","coordinates":[-0.12268,51.51174]}},{"type":"Feature","properties":{"name":"Hayes","kind":"place"},"geometry":{"type":"Point","coordinates":[-0.41815,51.50772]}},{"type":"Feature","properties":{"name":"Golders Green","kind":"place"},"geometry":{"type":"Point","coordinates":[-0.19548,51.57186]}},{"type":"Feature","properties":{"name":"Upper Norwood","kind":"place"},"geometry":{"type":"Point","coordinates":[-0.09403,51.41641]}},{"type":"Feature","properties":{"name":"Preston","kind":"place"},"geometry":{"type":"Point","coordinates":[-0.29151,51.57622]}},{"type":"Feature","properties":{"name":"Petts Wood","kind":"place"},"geometry":{"type":"Point","coordinates":[0.07713,51.39091]}},{"type":"Feature","properties":{"name":"Farnborough","kind":"place"},"geometry":{"type":"Point","coordinates":[0.06877,51.3599]}},{"type":"Feature","properties":{"name":"Locksbottom","kind":"place"},"geometry":{"type":"Point","coordinates":[0.06258,51.36705]}},{"type":"Feature","properties":{"name":"Bromley Common","kind":"place"},"geometry":{"type":"Point","coordinates":[0.04034,51.38202]}},{"type":"Feature","properties":{"name":"Green Street Green","kind":"place"},"geometry":{"type":"Point","coordinates":[0.08388,51.35077]}},{"type":"Feature","properties":{"name":"Anerley","kind":"place"},"geometry":{"type":"Point","coordinates":[-0.06113,51.40883]}},{"type":"Feature","properties":{"name":"Woodside","kind":"place"},"geometry":{"type":"Point","coordinates":[-0.40245,51.69998]}},{"type":"Feature","properties":{"name":"Kingswood","kind":"place"},"geometry":{"type":"Point","coordinates":[-0.40332,51.68968]}},{"type":"Feature","properties":{"name":"Feltham","kind":"place"},"geometry":{"type":"Point","coordinates":[-0.41066,51.44422]}},{"type":"Feature","properties":{"name":"Warley","kind":"place"},"geometry":{"type":"Point","coordinates":[0.29726,51.6084]}},{"type":"Feature","properties":{"name":"Alperton","kind":"place"},"geometry":{"type":"Point","coordinates":[-0.29792,51.53777]}},{"type":"Feature","properties":{"name":"Yeading","kind":"place"},"geometry":{"type":"Point","coordinates":[-0.39927,51.52724]}},{"type":"Feature","properties":{"name":"Northolt","kind":"place"},"geometry":{"type":"Point","coordinates":[-0.36956,51.54659]}},{"type":"Feature","properties":{"name":"Perivale","kind":"place"},"geometry":{"type":"Point","coordinates":[-0.3205,51.53447]}},{"type":"Feature","properties":{"name":"Ealing","kind":"place"},"geometry":{"type":"Point","coordinates":[-0.3052,51.51266]}},{"type":"Feature","properties":{"name":"Acton","kind":"place"},"geometry":{"type":"Point","coordinates":[-0.27326,51.50814]}},{"type":"Feature","properties":{"name":"Southall","kind":"place"},"geometry":{"type":"Point","coordinates":[-0.37552,51.51115]}},{"type":"Feature","properties":{"name":"Yiewsley","kind":"place"},"geometry":{"type":"Point","coordinates":[-0.47144,51.51291]}},{"type":"Feature","properties":{"name":"Upminster","kind":"place"},"geometry":{"type":"Point","coordinates":[0.24918,51.5562]}},{"type":"Feature","properties":{"name":"Sheerwater","kind":"place"},"geometry":{"type":"Point","coordinates":[-0.52764,51.33404]}},{"type":"Feature","properties":{"name":"Hampton Wick","kind":"place"},"geometry":{"type":"Point","coordinates":[-0.31267,51.41445]}},{"type":"Feature","properties":{"name":"North Sheen","kind":"place"},"geometry":{"type":"Point","coordinates":[-0.28228,51.46889]}},{"type":"Feature","properties":{"name":"Hayes","kind":"place"},"geometry":{"type":"Point","coordinates":[0.01024,51.37782]}},{"type":"Feature","properties":{"name":"Leyton","kind":"place"},"geometry":{"type":"Point","coordinates":[-0.01568,51.56967]}},{"type":"Feature","properties":{"name":"Brompton","kind":"place"},"geometry":{"type":"Point","coordinates":[-0.17833,51.49182]}},{"type":"Feature","properties":{"name":"Shacklewell","kind":"place"},"geometry":{"type":"Point","coordinates":[-0.07016,51.55238]}},{"type":"Feature","properties":{"name":"Bowes","kind":"place"},"geometry":{"type":"Point","coordinates":[-0.10003,51.61233]}},{"type":"Feature","properties":{"name":"East Finchley","kind":"place"},"geometry":{"type":"Point","coordinates":[-0.16609,51.58908]}},{"type":"Feature","properties":{"name":"Church End","kind":"place"},"geometry":{"type":"Point","coordinates":[-0.19189,51.60112]}},{"type":"Feature","properties":{"name":"Fallow Corner","kind":"place"},"geometry":{"type":"Point","coordinates":[-0.17874,51.60576]}},{"type":"Feature","properties":{"name":"Brook Green","kind":"place"},"geometry":{"type":"Point","coordinates":[-0.21925,51.49602]}},{"type":"Feature","properties":{"name":"West Kensington","kind":"place"},"geometry":{"type":"Point","coordinates":[-0.20749,51.49099]}},{"type":"Feature","properties":{"name":"Earl's Court","kind":"place"},"geometry":{"type":"Point","coordinates":[-0.1954,51.49197]}},{"type":"Feature","properties":{"name":"West Barnes","kind":"place"},"geometry":{"type":"Point","coordinates":[-0.23837,51.39776]}},{"type":"Feature","properties":{"name":"King's Cross","kind":"place"},"geometry":{"type":"Point","coordinates":[-0.12241,51.52911]}},{"type":"Feature","properties":{"name":"St. John's Wood","kind":"place"},"geometry":{"type":"Point","coordinates":[-0.17419,51.53173]}},{"type":"Feature","properties":{"name":"Maida Hill","kind":"place"},"geometry":{"type":"Point","coordinates":[-0.20126,51.52997]}},{"type":"Feature","properties":{"name":"Soho","kind":"place"},"geometry":{"type":"Point","coordinates":[-0.13505,51.51407]}},{"type":"Feature","properties":{"name":"Earlsfield","kind":"place"},"geometry":{"type":"Point","coordinates":[-0.18939,51.44645]}},{"type":"Feature","properties":{"name":"Summerstown","kind":"place"},"geometry":{"type":"Point","coordinates":[-0.18317,51.43434]}},{"type":"Feature","properties":{"name":"Shadwell","kind":"place"},"geometry":{"type":"Point","coordinates":[-0.05157,51.50941]}},{"type":"Feature","properties":{"name":"Whitechapel","kind":"place"},"geometry":{"type":"Point","coordinates":[-0.06597,51.51749]}},{"type":"Feature","properties":{"name":"Mile End","kind":"place"},"geometry":{"type":"Point","coordinates":[-0.03505,51.52509]}},{"type":"Feature","properties":{"name":"Hackney Wick","kind":"place"},"geometry":{"type":"Point","coordinates":[-0.02547,51.54435]}},{"type":"Feature","properties":{"name":"Plashet","kind":"place"},"geometry":{"type":"Point","coordinates":[0.03927,51.54001]}},{"type":"Feature","properties":{"name":"Upton","kind":"place"},"geometry":{"type":"Point","coordinates":[0.02632,51.54193]}},{"type":"Feature","properties":{"name":"Silvertown","kind":"place"},"geometry":{"type":"Point","coordinates":[0.03852,51.50136]}},{"type":"Feature","properties":{"name":"Lower Belvedere","kind":"place"},"geometry":{"type":"Point","coordinates":[0.15065,51.49134]}},{"type":"Feature","properties":{"name":"West Heath","kind":"place"},"geometry":{"type":"Point","coordinates":[0.12736,51.48087]}},{"type":"Feature","properties":{"name":"Lee","kind":"place"},"geometry":{"type":"Point","coordinates":[0.0115,51.45661]}},{"type":"Feature","properties":{"name":"Kidbrooke","kind":"place"},"geometry":{"type":"Point","coordinates":[0.0286,51.46743]}},{"type":"Feature","properties":{"name":"Woodford Wells","kind":"place"},"geometry":{"type":"Point","coordinates":[0.02483,51.61774]}},{"type":"Feature","properties":{"name":"Holloway","kind":"place"},"geometry":{"type":"Point","coordinates":[-0.11837,51.55725]}},{"type":"Feature","properties":{"name":"Tooting","kind":"place"},"geometry":{"type":"Point","coordinates":[-0.16797,51.42782]}},{"type":"Feature","properties":{"name":"Barking Riverside","kind":"place"},"geometry":{"type":"Point","coordinates":[0.10814,51.52055]}},{"type":"Feature","properties":{"name":"Chinbrook","kind":"place"},"geometry":{"type":"Point","coordinates":[0.033,51.42945]}},{"type":"Feature","properties":{"name":"Grove Park","kind":"place"},"geometry":{"type":"Point","coordinates":[0.02123,51.4319]}},{"type":"Feature","properties":{"name":"Longlands","kind":"place"},"geometry":{"type":"Point","coordinates":[0.08418,51.43049]}},{"type":"Feature","properties":{"name":"Horn Park","kind":"place"},"geometry":{"type":"Point","coordinates":[0.02606,51.44729]}},{"type":"Feature","properties":{"name":"Coldharbour","kind":"place"},"geometry":{"type":"Point","coordinates":[0.05768,51.43047]}},{"type":"Feature","properties":{"name":"Foots Cray","kind":"place"},"geometry":{"type":"Point","coordinates":[0.11802,51.41867]}},{"type":"Feature","properties":{"name":"Finsbury Park","kind":"place"},"geometry":{"type":"Point","coordinates":[-0.10965,51.56396]}},{"type":"Feature","properties":{"name":"Charlton Riverside","kind":"place"},"geometry":{"type":"Point","coordinates":[0.03765,51.49197]}},{"type":"Feature","properties":{"name":"Hainault","kind":"place"},"geometry":{"type":"Point","coordinates":[0.09722,51.607]}},{"type":"Feature","properties":{"name":"Chipping Ongar","kind":"place"},"geometry":{"type":"Point","coordinates":[0.24534,51.70595]}},{"type":"Feature","properties":{"name":"Fairlop","kind":"place"},"geometry":{"type":"Point","coordinates":[0.08197,51.59855]}},{"type":"Feature","properties":{"name":"East Greenwich","kind":"place"},"geometry":{"type":"Point","coordinates":[0.01047,51.488]}},{"type":"Feature","properties":{"name":"Greenwich Peninsula","kind":"place"},"geometry":{"type":"Point","coordinates":[0.00391,51.49798]}},{"type":"Feature","properties":{"name":"New Cross","kind":"place"},"geometry":{"type":"Point","coordinates":[-0.03206,51.47493]}},{"type":"Feature","properties":{"name":"Southbury","kind":"place"},"geometry":{"type":"Point","coordinates":[-0.06066,51.65085]}},{"type":"Feature","properties":{"name":"Well Hall","kind":"place"},"geometry":{"type":"Point","coordinates":[0.05014,51.45747]}},{"type":"Feature","properties":{"name":"Southend","kind":"place"},"geometry":{"type":"Point","coordinates":[-0.01317,51.4286]}},{"type":"Feature","properties":{"name":"Perry Vale","kind":"place"},"geometry":{"type":"Point","coordinates":[-0.04303,51.43512]}},{"type":"Feature","properties":{"name":"Middle Park","kind":"place"},"geometry":{"type":"Point","coordinates":[0.04008,51.44531]}},{"type":"Feature","properties":{"name":"New Beckenham","kind":"place"},"geometry":{"type":"Point","coordinates":[-0.03395,51.41606]}},{"type":"Feature","properties":{"name":"Shooters Hill","kind":"place"},"geometry":{"type":"Point","coordinates":[0.06631,51.46923]}},{"type":"Feature","properties":{"name":"Avery Hill","kind":"place"},"geometry":{"type":"Point","coordinates":[0.08061,51.45067]}},{"type":"Feature","properties":{"name":"Falconwood","kind":"place"},"geometry":{"type":"Point","coordinates":[0.08775,51.45828]}},{"type":"Feature","properties":{"name":"Blackfen","kind":"place"},"geometry":{"type":"Point","coordinates":[0.10306,51.45054]}},{"type":"Feature","properties":{"name":"Blendon","kind":"place"},"geometry":{"type":"Point","coordinates":[0.12046,51.44826]}},{"type":"Feature","properties":{"name":"Ramsden","kind":"place"},"geometry":{"type":"Point","coordinates":[0.11927,51.37721]}},{"type":"Feature","properties":{"name":"Goddington","kind":"place"},"geometry":{"type":"Point","coordinates":[0.11173,51.36904]}},{"type":"Feature","properties":{"name":"Southborough","kind":"place"},"geometry":{"type":"Point","coordinates":[0.04462,51.38992]}},{"type":"Feature","properties":{"name":"Crofton","kind":"place"},"geometry":{"type":"Point","coordinates":[0.07835,51.37823]}},{"type":"Feature","properties":{"name":"Shortlands","kind":"place"},"geometry":{"type":"Point","coordinates":[-0.00143,51.40609]}},{"type":"Feature","properties":{"name":"Sundridge","kind":"place"},"geometry":{"type":"Point","coordinates":[0.02021,51.41989]}},{"type":"Feature","properties":{"name":"Plaistow","kind":"place"},"geometry":{"type":"Point","coordinates":[0.01716,51.41515]}},{"type":"Feature","properties":{"name":"Bickley","kind":"place"},"geometry":{"type":"Point","coordinates":[0.04371,51.40174]}},{"type":"Feature","properties":{"name":"Poverest","kind":"place"},"geometry":{"type":"Point","coordinates":[0.09504,51.3908]}},{"type":"Feature","properties":{"name":"St Paul's Cray","kind":"place"},"geometry":{"type":"Point","coordinates":[0.11833,51.40318]}},{"type":"Feature","properties":{"name":"Albany Park","kind":"place"},"geometry":{"type":"Point","coordinates":[0.12592,51.4361]}},{"type":"Feature","properties":{"name":"North Cray","kind":"place"},"geometry":{"type":"Point","coordinates":[0.1346,51.42518]}},{"type":"Feature","properties":{"name":"White Oak","kind":"place"},"geometry":{"type":"Point","coordinates":[0.16933,51.40314]}},{"type":"Feature","properties":{"name":"Elmstead","kind":"place"},"geometry":{"type":"Point","coordinates":[0.04692,51.41819]}},{"type":"Feature","properties":{"name":"Crayford","kind":"place"},"geometry":{"type":"Point","coordinates":[0.17872,51.45156]}},{"type":"Feature","properties":{"name":"Northumberland Heath","kind":"place"},"geometry":{"type":"Point","coordinates":[0.16369,51.47775]}},{"type":"Feature","properties":{"name":"Lessness Heath","kind":"place"},"geometry":{"type":"Point","coordinates":[0.14629,51.48257]}},{"type":"Feature","properties":{"name":"Coney Hall","kind":"place"},"geometry":{"type":"Point","coordinates":[0.00351,51.37038]}},{"type":"Feature","properties":{"name":"Canary Wharf","kind":"place"},"geometry":{"type":"Point","coordinates":[-0.019,51.5049]}},{"type":"Feature","properties":{"name":"Elm Park","kind":"place"},"geometry":{"type":"Point","coordinates":[0.19996,51.54847]}},{"type":"Feature","properties":{"name":"Chipping Barnet","kind":"place"},"geometry":{"type":"Point","coordinates":[-0.20023,51.65309]}},{"type":"Feature","properties":{"name":"West Hackney","kind":"place"},"geometry":{"type":"Point","coordinates":[-0.06913,51.56086]}},{"type":"Feature","properties":{"name":"Batchworth","kind":"place"},"geometry":{"type":"Point","coordinates":[-0.4611,51.62945]}},{"type":"Feature","properties":{"name":"Barnehurst","kind":"place"},"geometry":{"type":"Point","coordinates":[0.16176,51.46269]}},{"type":"Feature","properties":{"name":"Castle Hill","kind":"place"},"geometry":{"type":"Point","coordinates":[0.30915,51.43748]}},{"type":"Feature","properties":{"name":"Waltham Cross","kind":"place"},"geometry":{"type":"Point","coordinates":[-0.033,51.68578]}},{"type":"Feature","properties":{"name":"Coldblow","kind":"place"},"geometry":{"type":"Point","coordinates":[0.16249,51.43834]}},{"type":"Feature","properties":{"name":"West Ewell","kind":"place"},"geometry":{"type":"Point","coordinates":[-0.27337,51.36182]}},{"type":"Feature","properties":{"name":"Nork","kind":"place"},"geometry":{"type":"Point","coordinates":[-0.22399,51.32282]}},{"type":"Feature","properties":{"name":"Park Royal","kind":"place"},"geometry":{"type":"Point","coordinates":[-0.27972,51.52844]}},{"type":"Feature","properties":{"name":"Redbridge","kind":"place"},"geometry":{"type":"Point","coordinates":[0.04534,51.57658]}},{"type":"Feature","properties":{"name":"Hale End","kind":"place"},"geometry":{"type":"Point","coordinates":[0.00351,51.60393]}},{"type":"Feature","properties":{"name":"Highams Park","kind":"place"},"geometry":{"type":"Point","coordinates":[-0.00075,51.60807]}},{"type":"Feature","properties":{"name":"Harlesden","kind":"place"},"geometry":{"type":"Point","coordinates":[-0.2472,51.53581]}},{"type":"Feature","properties":{"name":"Dollis Hill","kind":"place"},"geometry":{"type":"Point","coordinates":[-0.22936,51.55978]}},{"type":"Feature","properties":{"name":"Brondesbury","kind":"place"},"geometry":{"type":"Point","coordinates":[-0.21256,51.54228]}},{"type":"Feature","properties":{"name":"Clapton","kind":"place"},"geometry":{"type":"Point","coordinates":[-0.05588,51.5586]}},{"type":"Feature","properties":{"name":"Dulwich Village","kind":"place"},"geometry":{"type":"Point","coordinates":[-0.08441,51.44996]}},{"type":"Feature","properties":{"name":"Wood Green","kind":"place"},"geometry":{"type":"Point","coordinates":[-0.10996,51.59721]}},{"type":"Feature","properties":{"name":"St Pancras","kind":"place"},"geometry":{"type":"Point","coordinates":[-0.1291,51.52591]}},{"type":"Feature","properties":{"name":"Loughborough Junction","kind":"place"},"geometry":{"type":"Point","coordinates":[-0.10244,51.46845]}},{"type":"Feature","properties":{"name":"Cowley","kind":"place"},"geometry":{"type":"Point","coordinates":[-0.47938,51.52793]}},{"type":"Feature","properties":{"name":"Fleet Estate","kind":"place"},"geometry":{"type":"Point","coordinates":[0.24602,51.43478]}},{"type":"Feature","properties":{"name":"St Mary's","kind":"place"},"geometry":{"type":"Point","coordinates":[0.16318,51.39782]}},{"type":"Feature","properties":{"name":"Christchurch","kind":"place"},"geometry":{"type":"Point","coordinates":[0.18435,51.39394]}},{"type":"Feature","properties":{"name":"High Firs","kind":"place"},"geometry":{"type":"Point","coordinates":[0.17698,51.39048]}},{"type":"Feature","properties":{"name":"Oval","kind":"place"},"geometry":{"type":"Point","coordinates":[-0.1145,51.48212]}},{"type":"Feature","properties":{"name":"Old Kent Road","kind":"place"},"geometry":{"type":"Point","coordinates":[-0.07667,51.48827]}},{"type":"Feature","properties":{"name":"Barnes Cray","kind":"place"},"geometry":{"type":"Point","coordinates":[0.19362,51.45539]}},{"type":"Feature","properties":{"name":"The Bridge","kind":"place"},"geometry":{"type":"Point","coordinates":[0.23214,51.46029]}},{"type":"Feature","properties":{"name":"Temple Hill","kind":"place"},"geometry":{"type":"Point","coordinates":[0.22667,51.45232]}},{"type":"Feature","properties":{"name":"New Town","kind":"place"},"geometry":{"type":"Point","coordinates":[0.23202,51.44553]}},{"type":"Feature","properties":{"name":"Brooklands","kind":"place"},"geometry":{"type":"Point","coordinates":[0.22371,51.43323]}},{"type":"Feature","properties":{"name":"Abbey Wood","kind":"place"},"geometry":{"type":"Point","coordinates":[0.11128,51.4907]}},{"type":"Feature","properties":{"name":"Sudbury","kind":"place"},"geometry":{"type":"Point","coordinates":[-0.31366,51.55276]}},{"type":"Feature","properties":{"name":"Upper Belvedere","kind":"place"},"geometry":{"type":"Point","coordinates":[0.1445,51.48148]}},{"type":"Feature","properties":{"name":"North End","kind":"place"},"geometry":{"type":"Point","coordinates":[0.18545,51.4672]}},{"type":"Feature","properties":{"name":"Slade Green","kind":"place"},"geometry":{"type":"Point","coordinates":[0.19255,51.47192]}},{"type":"Feature","properties":{"name":"Dartmouth Park","kind":"place"},"geometry":{"type":"Point","coordinates":[-0.14414,51.55925]}},{"type":"Feature","properties":{"name":"Selhurst","kind":"place"},"geometry":{"type":"Point","coordinates":[-0.08914,51.38998]}},{"type":"Feature","properties":{"name":"Woodside","kind":"place"},"geometry":{"type":"Point","coordinates":[-0.06611,51.3896]}},{"type":"Feature","properties":{"name":"Upper Elmers End","kind":"place"},"geometry":{"type":"Point","coordinates":[-0.03752,51.39158]}},{"type":"Feature","properties":{"name":"Eden Park","kind":"place"},"geometry":{"type":"Point","coordinates":[-0.02684,51.39157]}},{"type":"Feature","properties":{"name":"Park Langley","kind":"place"},"geometry":{"type":"Point","coordinates":[-0.01094,51.3879]}},{"type":"Feature","properties":{"name":"Monks Orchard","kind":"place"},"geometry":{"type":"Point","coordinates":[-0.0413,51.38365]}},{"type":"Feature","properties":{"name":"Carshalton Beeches","kind":"place"},"geometry":{"type":"Point","coordinates":[-0.17422,51.34864]}},{"type":"Feature","properties":{"name":"Little Woodcote","kind":"place"},"geometry":{"type":"Point","coordinates":[-0.15739,51.33767]}},{"type":"Feature","properties":{"name":"South Beddington","kind":"place"},"geometry":{"type":"Point","coordinates":[-0.13864,51.35662]}},{"type":"Feature","properties":{"name":"Carshalton-on-the-Hill","kind":"place"},"geometry":{"type":"Point","coordinates":[-0.16095,51.35068]}},{"type":"Feature","properties":{"name":"Woodcote Green","kind":"place"},"geometry":{"type":"Point","coordinates":[-0.14748,51.3478]}},{"type":"Feature","properties":{"name":"The Wrythe","kind":"place"},"geometry":{"type":"Point","coordinates":[-0.16755,51.37205]}},{"type":"Feature","properties":{"name":"Benhilton","kind":"place"},"geometry":{"type":"Point","coordinates":[-0.19378,51.37308]}},{"type":"Feature","properties":{"name":"Rosehill","kind":"place"},"geometry":{"type":"Point","coordinates":[-0.19041,51.38351]}},{"type":"Feature","properties":{"name":"Collier's Wood","kind":"place"},"geometry":{"type":"Point","coordinates":[-0.1774,51.4184]}},{"type":"Feature","properties":{"name":"Queen's Park","kind":"place"},"geometry":{"type":"Point","coordinates":[-0.2041,51.53663]}},{"type":"Feature","properties":{"name":"East Wickham","kind":"place"},"geometry":{"type":"Point","coordinates":[0.11048,51.47143]}},{"type":"Feature","properties":{"name":"Kensal Town","kind":"place"},"geometry":{"type":"Point","coordinates":[-0.20989,51.52764]}},{"type":"Feature","properties":{"name":"Keston Mark","kind":"place"},"geometry":{"type":"Point","coordinates":[0.039,51.36721]}},{"type":"Feature","properties":{"name":"Maryland","kind":"place"},"geometry":{"type":"Point","coordinates":[0.00666,51.54907]}},{"type":"Feature","properties":{"name":"South Woodford","kind":"place"},"geometry":{"type":"Point","coordinates":[0.02757,51.59245]}},{"type":"Feature","properties":{"name":"Clayhall","kind":"place"},"geometry":{"type":"Point","coordinates":[0.06074,51.59136]}},{"type":"Feature","properties":{"name":"Woodford Bridge","kind":"place"},"geometry":{"type":"Point","coordinates":[0.0526,51.60574]}},{"type":"Feature","properties":{"name":"Woodford Green","kind":"place"},"geometry":{"type":"Point","coordinates":[0.0212,51.60858]}},{"type":"Feature","properties":{"name":"Waterloo","kind":"place"},"geometry":{"type":"Point","coordinates":[-0.11264,51.50149]}},{"type":"Feature","properties":{"name":"Gants Hill","kind":"place"},"geometry":{"type":"Point","coordinates":[0.0664,51.57657]}},{"type":"Feature","properties":{"name":"Chafford Hundred","kind":"place"},"geometry":{"type":"Point","coordinates":[0.30396,51.48991]}},{"type":"Feature","properties":{"name":"Rush Green","kind":"place"},"geometry":{"type":"Point","coordinates":[0.17624,51.56554]}},{"type":"Feature","properties":{"name":"Bushey","kind":"place"},"geometry":{"type":"Point","coordinates":[-0.36219,51.64416]}},{"type":"Feature","properties":{"name":"Ickenham","kind":"place"},"geometry":{"type":"Point","coordinates":[-0.45426,51.56464]}},{"type":"Feature","properties":{"name":"Mapesbury","kind":"place"},"geometry":{"type":"Point","coordinates":[-0.21289,51.5504]}},{"type":"Feature","properties":{"name":"Hounslow West","kind":"place"},"geometry":{"type":"Point","coordinates":[-0.38591,51.47287]}},{"type":"Feature","properties":{"name":"Ebbsfleet Valley","kind":"place"},"geometry":{"type":"Point","coordinates":[0.29733,51.43422]}},{"type":"Feature","properties":{"name":"Gallions Reach","kind":"place"},"geometry":{"type":"Point","coordinates":[0.07498,51.50717]}},{"type":"Feature","properties":{"name":"Southwark","kind":"place"},"geometry":{"type":"Point","coordinates":[-0.09956,51.50565]}},{"type":"Feature","properties":{"name":"Monkhams","kind":"place"},"geometry":{"type":"Point","coordinates":[0.03304,51.61215]}},{"type":"Feature","properties":{"name":"Twyford","kind":"place"},"geometry":{"type":"Point","coordinates":[-0.27305,51.53527]}},{"type":"Feature","properties":{"name":"Stifford Clays","kind":"place"},"geometry":{"type":"Point","coordinates":[0.32942,51.4979]}},{"type":"Feature","properties":{"name":"Westbourne","kind":"place"},"geometry":{"type":"Point","coordinates":[-0.19654,51.5188]}},{"type":"Feature","properties":{"name":"Waddon Marsh","kind":"place"},"geometry":{"type":"Point","coordinates":[-0.12021,51.37747]}}]}